NORAD_CAT_ID,OBJECT_NAME,OBJECT_TYPE,EPOCH,MEAN_MOTION,ECCENTRICITY,INCLINATION,RA_OF_ASC_NODE,ARG_OF_PERICENTER,MEAN_ANOMALY,BSTAR,MEAN_MOTION_DOT,MEAN_MOTION_DDOT,TLE_LINE0,TLE_LINE1,TLE_LINE2,SEMIMAJOR_AXIS,PERIOD,APOGEE,PERIGEE,DECAYED
53022.0,STARLINK-4216,PAYLOAD,2022-09-16 02:00:01,15.49910904,0.0001506,53.2161,31.5061,53.0826,116.2653,-0.0001793,-0.00010623,0.0,0 STARLINK-4216,1 53022U 22076AN  22259.08334491 -.00010623  00000-0 -17930-3 0  9998,2 53022  53.2161  31.5061 0001506  53.0826 116.2653 15.49910904 11585,6795.123000000001,92.909,418.012,415.965,0.0
53022.0,STARLINK-4216,PAYLOAD,2022-09-16 14:00:01,15.49930213,0.0001605,53.2162,29.1173,52.3217,28.4325,-0.00033859,-0.00019651,0.0,0 STARLINK-4216,1 53022U 22076AN  22259.58334491 -.00019651  00000-0 -33859-3 0  9991,2 53022  53.2162  29.1173 0001605  52.3217  28.4325 15.49930213  1303,6795.066999999999,92.907,418.023,415.841,0.0
53022.0,STARLINK-4216,PAYLOAD,2022-09-16 22:00:00,15.49948903,0.000159,53.2162,27.5242,44.2316,97.4825,-0.0015548,-0.00087911,0.0,0 STARLINK-4216,1 53022U 22076AN  22259.91667824 -.00087911  00000-0 -15548-2 0  9995,2 53022  53.2162  27.5242 0001590  44.2316  97.4825 15.49948903 11717,6795.012,92.906,417.958,415.797,0.0
53022.0,STARLINK-4216,PAYLOAD,2022-09-17 14:00:01,15.4989959,0.0001571999999999,53.2162,24.338,43.9083,219.6689,-0.00011522,-6.989e-05,0.0,0 STARLINK-4216,1 53022U 22076AN  22260.58334491 -.00006989  00000-0 -11522-3 0  9996,2 53022  53.2162  24.3380 0001572  43.9083 219.6689 15.49899590 11827,6795.156999999997,92.909,418.09,415.953,0.0
53022.0,STARLINK-4216,PAYLOAD,2022-09-17 22:00:00,15.49909882,0.0001610999999999,53.2157,22.7449,40.1647,284.327,-7.9116e-05,-4.943e-05,0.0,0 STARLINK-4216,1 53022U 22076AN  22260.91667824 -.00004943  00000-0 -79116-4 0  9994,2 53022  53.2157  22.7449 0001611  40.1647 284.3270 15.49909882  1301,6795.126,92.909,418.086,415.897,0.0
53022.0,STARLINK-4216,PAYLOAD,2022-09-18 14:00:01,15.5005724,0.0001733,53.2171,19.5539,44.8224,41.6139,-0.011649,-0.0061585,0.0,0 STARLINK-4216,1 53022U 22076AN  22261.58335648 -.00615850  00000-0 -11649-1 0  9993,2 53022  53.2171  19.5539 0001733  44.8224  41.6139 15.50057240  1300,6794.696,92.9,417.73800000000006,415.383,0.0
53022.0,STARLINK-4216,PAYLOAD,2022-09-18 22:00:00,15.49783292,0.0001594,53.2169,17.9587,54.2348,92.9562,-0.020285,-0.01043241,0.0,0 STARLINK-4216,1 53022U 22076AN  22261.91667824 -.01043241  00000-0 -20285-1 0  9990,2 53022  53.2169  17.9587 0001594  54.2348  92.9562 15.49783292  1309,6795.496,92.916,418.445,416.278,0.0
53022.0,STARLINK-4216,PAYLOAD,2022-09-19 06:00:02,15.49033537,0.0001592,53.2172,16.3643,47.1105,160.4816,-0.021186,-0.01059348,0.0,0 STARLINK-4216,1 53022U 22076AN  22262.25002315 -.01059348  00000-0 -21186-1 0  9992,2 53022  53.2172  16.3643 0001592  47.1105 160.4816 15.49033537 12089,6797.689,92.961,420.636,418.472,0.0
53022.0,STARLINK-4216,PAYLOAD,2022-09-19 14:00:01,15.4827301,0.0001686999999999,53.2172,14.7762,40.2435,226.7091,-0.0217139999999999,-0.0105722,0.0,0 STARLINK-4216,1 53022U 22076AN  22262.58334491 -.01057220  00000-0 -21714-1 0  9995,2 53022  53.2172  14.7762 0001687  40.2435 226.7091 15.48273010  1303,6799.915,93.007,422.927,420.633,0.0
53022.0,STARLINK-4216,PAYLOAD,2022-09-19 22:00:00,15.47515966,0.0001284999999999,53.2172,13.1873,51.7298,273.7355,-0.0223879999999999,-0.01060945,0.0,0 STARLINK-4216,1 53022U 22076AN  22262.91667824 -.01060945  00000-0 -22388-1 0  9997,2 53022  53.2172  13.1873 0001285  51.7298 273.7355 15.47515966  1300,6802.132,93.052,424.871,423.12300000000016,0.0
53022.0,STARLINK-4216,PAYLOAD,2022-09-20 06:00:00,15.46753141,0.0001447,53.2173,11.5992,41.1873,341.8806,-0.022866,-0.01055683,0.0,0 STARLINK-4216,1 53022U 22076AN  22263.25001157 -.01055683  00000-0 -22866-1 0  9990,2 53022  53.2173  11.5992 0001447  41.1873 341.8806 15.46753141 12237,6804.369000000002,93.098,427.218,425.249,0.0
53022.0,STARLINK-4216,PAYLOAD,2022-09-20 14:00:01,15.45996428,0.0001804,53.2173,10.0165,34.2805,45.4728,-0.023568,-0.01059577,0.0,0 STARLINK-4216,1 53022U 22076AN  22263.58334491 -.01059577  00000-0 -23568-1 0  9992,2 53022  53.2173  10.0165 0001804  34.2805  45.4728 15.45996428  1300,6806.589,93.144,429.682,427.226,0.0
53022.0,STARLINK-4216,PAYLOAD,2022-09-20 22:00:01,15.45235377,0.0001689,53.2173,8.4328,40.0053,95.5888,-0.02413,-0.01056922,0.0,0 STARLINK-4216,1 53022U 22076AN  22263.91668981 -.01056922  00000-0 -24130-1 0  9990,2 53022  53.2173   8.4328 0001689  40.0053  95.5888 15.45235377  1305,6808.824000000001,93.19,431.839,429.539,0.0
53022.0,STARLINK-4216,PAYLOAD,2022-09-21 22:00:00,15.42958436,0.0001429,53.2173,3.6947,47.9057,249.4731,-0.0261519999999999,-0.01074261,0.0,0 STARLINK-4216,1 53022U 22076AN  22264.91667824 -.01074261  00000-0 -26152-1 0  9998,2 53022  53.2173   3.6947 0001429  47.9057 249.4731 15.42958436 12495,6815.52,93.327,438.359,436.411,0.0
53022.0,STARLINK-4216,PAYLOAD,2022-09-22 14:00:01,15.41442053,0.0001645,53.2175,0.5469,38.6363,2.0764,-0.0276089999999999,-0.01077392,0.0,0 STARLINK-4216,1 53022U 22076AN  22265.58334491 -.01077392  00000-0 -27609-1 0  9999,2 53022  53.2175   0.5469 0001645  38.6363   2.0764 15.41442053  1308,6819.989000000001,93.419,442.976,440.733,0.0
53022.0,STARLINK-4216,PAYLOAD,2022-09-22 22:00:00,15.40698847,0.0001889,53.2169,358.9743,33.3013,57.702,-0.028888,-0.01097871,0.0,0 STARLINK-4216,1 53022U 22076AN  22265.91667824 -.01097871  00000-0 -28888-1 0  9999,2 53022  53.2169 358.9743 0001889  33.3013  57.7020 15.40698847 12644,6822.183000000001,93.464,445.336,442.759,0.0
53022.0,STARLINK-4216,PAYLOAD,2022-09-23 14:00:01,15.39190663,0.0001889,53.2173,355.8366,42.8731,145.9841,-0.030779,-0.01111394,0.0,0 STARLINK-4216,1 53022U 22076AN  22266.58334491 -.01111394  00000-0 -30779-1 0  9993,2 53022  53.2173 355.8366 0001889  42.8731 145.9841 15.39190663  1301,6826.638000000001,93.556,449.793,447.214,0.0
53022.0,STARLINK-4216,PAYLOAD,2022-09-23 22:00:00,15.38400889,0.0001689,53.2173,354.2676,42.6586,193.7776,-0.030387,-0.01072412,0.0,0 STARLINK-4216,1 53022U 22076AN  22266.91667824 -.01072412  00000-0 -30387-1 0  9991,2 53022  53.2173 354.2676 0001689  42.6586 193.7776 15.38400889  1303,6828.975,93.604,451.99300000000005,449.686,0.0
53022.0,STARLINK-4216,PAYLOAD,2022-09-24 06:00:00,15.37647213,0.0001673,53.2168,352.7027,36.7004,246.3796,-0.031283,-0.01076722,0.0,0 STARLINK-4216,1 53022U 22076AN  22267.25001157 -.01076722  00000-0 -31283-1 0  9994,2 53022  53.2168 352.7027 0001673  36.7004 246.3796 15.37647213 12854,6831.206,93.65,454.214,451.92800000000005,0.0
53022.0,STARLINK-4216,PAYLOAD,2022-09-24 14:00:01,15.36932898,0.0001531999999999,53.2172,351.1421,43.5465,285.3073,-0.033932,-0.01135489,0.0,0 STARLINK-4216,1 53022U 22076AN  22267.58335648 -.01135489  00000-0 -33932-1 0  9994,2 53022  53.2172 351.1421 0001532  43.5465 285.3073 15.36932898  1305,6833.321999999999,93.693,456.234,454.14,0.0
53022.0,STARLINK-4216,PAYLOAD,2022-09-24 22:00:00,15.36121713,0.0001486,53.2174,349.5784,41.2825,332.3617,-0.032687,-0.01071046,0.0,0 STARLINK-4216,1 53022U 22076AN  22267.91667824 -.01071046  00000-0 -32687-1 0  9999,2 53022  53.2174 349.5784 0001486  41.2825 332.3617 15.36121713  1306,6835.728,93.743,458.609,456.577,0.0
53022.0,STARLINK-4216,PAYLOAD,2022-09-25 06:00:00,15.35359768,0.0001749,53.2174,348.0182,34.8486,22.7071,-0.033331,-0.0106611,0.0,0 STARLINK-4216,1 53022U 22076AN  22268.25001157 -.01066110  00000-0 -33331-1 0  9991,2 53022  53.2174 348.0182 0001749  34.8486  22.7071 15.35359768 13001,6837.989000000001,93.789,461.05,458.658,0.0
53022.0,STARLINK-4216,PAYLOAD,2022-09-25 14:00:01,15.34602043,0.0001934,53.2175,346.4625,34.0717,66.4801,-0.034265,-0.01069392,0.0,0 STARLINK-4216,1 53022U 22076AN  22268.58334491 -.01069392  00000-0 -34265-1 0  9999,2 53022  53.2175 346.4625 0001934  34.0717  66.4801 15.34602043  1303,6840.24,93.835,463.42800000000005,460.782,0.0
53022.0,STARLINK-4216,PAYLOAD,2022-09-25 22:00:01,15.33841998,0.0001943,53.2175,344.9053,34.1217,108.5804,-0.03507,-0.01068341,0.0,0 STARLINK-4216,1 53022U 22076AN  22268.91668981 -.01068341  00000-0 -35070-1 0  9998,2 53022  53.2175 344.9053 0001943  34.1217 108.5804 15.33841998  1301,6842.499,93.882,465.694,463.035,0.0
53022.0,STARLINK-4216,PAYLOAD,2022-09-26 14:00:01,15.32321377,0.0001908,53.2175,341.8004,38.9016,185.1685,-0.036674,-0.01064875,0.0,0 STARLINK-4216,1 53022U 22076AN  22269.58334491 -.01064875  00000-0 -36674-1 0  9997,2 53022  53.2175 341.8004 0001908  38.9016 185.1685 15.32321377  1304,6847.025,93.975,470.197,467.584,0.0
53022.0,STARLINK-4216,PAYLOAD,2022-09-26 22:00:00,15.31564979,0.0001724,53.2175,340.2485,39.7836,223.6337,-0.03778,-0.01070607,0.0,0 STARLINK-4216,1 53022U 22076AN  22269.91667824 -.01070607  00000-0 -37780-1 0  9992,2 53022  53.2175 340.2485 0001724  39.7836 223.6337 15.31564979 13261,6849.28,94.021,472.325,469.964,0.0
53022.0,STARLINK-4216,PAYLOAD,2022-09-27 14:00:01,15.30044008,0.0001901,53.2175,337.1545,30.6199,308.7535,-0.03947,-0.01066904,0.0,0 STARLINK-4216,1 53022U 22076AN  22270.58334491 -.01066904  00000-0 -39470-1 0  9991,2 53022  53.2175 337.1545 0001901  30.6199 308.7535 15.30044008  1304,6853.818,94.115,476.986,474.38,0.0
53022.0,STARLINK-4216,PAYLOAD,2022-09-27 22:00:01,15.29285046,0.0001538,53.2175,335.6077,40.2653,335.7821,-0.040476,-0.01068394,0.0,0 STARLINK-4216,1 53022U 22076AN  22270.91668981 -.01068394  00000-0 -40476-1 0  9995,2 53022  53.2175 335.6077 0001538  40.2653 335.7821 15.29285046  1300,6856.085,94.162,479.005,476.896,0.0
53022.0,STARLINK-4216,PAYLOAD,2022-09-28 14:00:01,15.27763365,0.0002052,53.2176,332.5245,29.9441,56.52,-0.042212,-0.01063675,0.0,0 STARLINK-4216,1 53022U 22076AN  22271.58334491 -.01063675  00000-0 -42212-1 0  9992,2 53022  53.2176 332.5245 0002052  29.9441  56.5200 15.27763365  1307,6860.637,94.255,483.91,481.094,0.0
